[{"OBJECT_NAME":"SHIYAN-20B (SY-20B)","OBJECT_ID":"2022-169B","EPOCH":"2026-03-09T23:45:17.388576","MEAN_MOTION":14.29504375,"ECCENTRICITY":0.00224209,"INCLINATION":59.9961,"RA_OF_ASC_NODE":208.3414,"ARG_OF_PERICENTER":132.0718,"MEAN_ANOMALY":228.2229,"EPHEMERIS_TYPE":0,"CLASSIFICATION_TYPE":"U","NORAD_CAT_ID":54700,"ELEMENT_SET_NO":999,"REV_AT_EPOCH":16917,"BSTAR":0.00010959596,"MEAN_MOTION_DOT":1.45e-6,"MEAN_MOTION_DDOT":0},{"OBJECT_NAME":"NOAA 17","OBJECT_ID":"2002-032A","EPOCH":"2026-03-09T22:57:14.158368","MEAN_MOTION":14.26189582,"ECCENTRICITY":0.00105724,"INCLINATION":98.8542,"RA_OF_ASC_NODE":33.5888,"ARG_OF_PERICENTER":280.9061,"MEAN_ANOMALY":79.0929,"EPHEMERIS_TYPE":0,"CLASSIFICATION_TYPE":"U","NORAD_CAT_ID":27453,"ELEMENT_SET_NO":999,"REV_AT_EPOCH":23284,"BSTAR":0.00015334864,"MEAN_MOTION_DOT":3.22e-6,"MEAN_MOTION_DDOT":0}]
